LANDSAT7
1 25682U 99020A   18094.21477438 -.00000034  00000-0  24991-5 0  9999
2 25682  98.1747 165.7945 0001073 102.8882 257.2440 14.57127880  8979
